345P/LINEAR,e,2.7274,154.5114,196.4852,4.036979,0.1215120,0.22133640,247.5093,02/16.0/2022,2000,g 12.0,4.0
# From MPC110086
346P/Catalina,e,22.1926,102.4590,335.9571,4.474617,0.1041287,0.50272529,190.4102,02/16.0/2022,2000,g 14.0,4.0
# From MPC108599
347P/PANSTARRS,e,11.7523,261.0217,98.3895,3.604952,0.1439975,0.38599838,285.2600,02/16.0/2022,2000,g 15.0,4.0
# From MPEC 2022-C56
348P/PANSTARRS,e,17.7402,312.9416,135.6619,3.150432,0.1762580,0.30680403,0.6134,02/16.0/2022,2000,g 14.0,4.0
# From MPC112394
349P/Lemmon,e,5.4908,331.7464,255.9905,3.574548,0.1458386,0.29862137,238.7175,02/16.0/2022,2000,g 14.0,4.0
# From MPC111775
350P/McNaught,e,7.3604,65.3065,139.8130,4.087794,0.1192534,0.09237615,181.9776,02/16.0/2022,2000,g 14.0,4.0
# From MPC105244
351P/Wiegert-PANSTARRS,e,12.7837,283.4412,352.6809,4.438340,0.1054079,0.29550373,240.4437,02/16.0/2022,2000,g 12.5,4.0
# From MPC110086
352P/Skiff,e,21.0108,28.0299,309.2691,6.641187,0.0575885,0.61815369,97.8516,02/16.0/2022,2000,g 11.5,4.0
# From MPEC 2020-AA5
353P/McNaught,e,28.4189,121.5511,230.4183,4.170994,0.1157030,0.47031718,175.4514,02/16.0/2022,2000,g 14.5,4.0
# From MPC105545
354P/LINEAR,e,5.2556,320.1285,132.8842,2.289407,0.2845244,0.12566885,187.7977,02/16.0/2022,2000,g 15.5,4.0
# From MPEC 2020-AA5
355P/LINEAR-NEAT,e,11.0435,51.4295,336.2733,3.470816,0.1524252,0.50756538,241.7764,02/16.0/2022,2000,g 15.5,2.0
# From MPEC 2021-F20
356P/WISE,e,9.6380,160.7977,225.9979,4.158430,0.1162278,0.35545665,176.7447,02/16.0/2022,2000,g 14.0,4.0
# From MPC114609
357P/Hill,e,6.3138,44.5612,1.3886,4.459305,0.1046654,0.43525102,142.1760,02/16.0/2022,2000,g 15.5,4.0
# From MPEC 2020-HN5
358P/PANSTARRS,e,11.0595,85.7026,299.7582,3.146866,0.1765577,0.23874578,248.1944,02/16.0/2022,2000,g 18.0,4.0
# From MPC110086
359P/LONEOS,e,10.2673,149.7556,200.2063,4.639885,0.0986151,0.32419514,161.5867,02/16.0/2022,2000,g 13.5,4.0
# From MPC108599
360P/WISE,e,24.1104,2.1910,354.1548,3.701328,0.1384101,0.49915514,227.0587,02/16.0/2022,2000,g 19.5,6.0
# From MPC114609
361P/Spacewatch,e,13.8980,203.2520,219.0185,4.937090,0.0898457,0.43847259,118.9877,02/16.0/2022,2000,g 12.0,4.0
# From MPEC 2017-V13
362P/,e,15.5562,192.5537,53.6744,3.970281,0.1245869,0.27905126,249.6602,02/16.0/2022,2000,g 12.9,2.0
# From MPC114609
363P/Lemmon,e,5.4114,146.8838,341.1463,3.560030,0.1467316,0.52191971,213.1945,02/16.0/2022,2000,g 17.5,4.0
# From MPEC 2021-F20
364P/PANSTARRS,e,12.1362,46.1708,212.0165,2.879700,0.2016895,0.72195541,268.8423,02/16.0/2022,2000,g 17.0,2.0
# From MPC111775
365P/PANSTARRS,e,9.8206,86.7874,66.9338,3.168915,0.1747182,0.58004281,255.0746,02/16.0/2022,2000,g 17.0,4.0
# From MPC114610
366P/Spacewatch,e,8.8579,70.7623,153.0996,3.496219,0.1507669,0.34808217,197.0648,02/16.0/2022,2000,g 15.0,4.0
# From MPC112395
367P/Catalina,e,8.4609,58.7219,172.8688,3.506544,0.1501016,0.27995216,200.6869,02/16.0/2022,2000,g 17.5,2.0
# From MPC114610
368P/NEAT,e,15.4808,257.9048,118.8375,5.528037,0.0758311,0.62662802,94.7846,02/16.0/2022,2000,g 14.0,4.0
# From MPC114610
369P/Hill,e,10.3188,47.2907,13.1605,4.383018,0.1074099,0.55484147,130.9809,02/16.0/2022,2000,g 15.0,4.0
# From MPEC 2021-F20
370P/NEAT,e,19.4133,55.0937,356.6843,6.434353,0.0603875,0.61494022,81.3402,02/16.0/2022,2000,g 13.0,4.0
# From MPC114610
371P/LINEAR-Skiff,e,17.3799,67.2739,308.4986,4.180885,0.1152927,0.47690844,141.7575,02/16.0/2022,2000,g 16.0,4.0
# From MPEC 2020-K19
372P/McNaught,e,9.5094,325.8173,27.4583,4.506179,0.1030366,0.15270187,124.8649,02/16.0/2022,2000,g 13.5,4.0
# From MPEC 2021-F20
373P/Rinner,e,13.7653,231.9513,221.0492,3.802351,0.1329308,0.39242053,138.8133,02/16.0/2022,2000,g 14.5,4.0
# From MPC114610
374P/Larson,e,10.7660,7.9135,51.4597,4.972576,0.0888857,0.46287904,100.6139,02/16.0/2022,2000,g 14.0,4.0
# From MPEC 2021-F20
375P/Hill,e,17.3614,359.9498,119.4136,5.553302,0.0753143,0.65860746,86.8507,02/16.0/2022,2000,g 16.0,4.0
# From MPEC 2021-S45
376P/LONEOS,e,1.1839,314.5037,284.5597,5.802049,0.0705232,0.51687782,61.6942,02/16.0/2022,2000,g 12.5,4.0
# From MPEC 2021-N06
377P/Scotti,e,9.0238,226.0632,355.0547,6.707841,0.0567322,0.25193707,33.1291,02/16.0/2022,2000,g  9.5,4.0
# From MPEC 2021-Y10
378P/McNaught,e,19.0450,94.2599,193.7716,6.355314,0.0615175,0.46895565,29.8878,02/16.0/2022,2000,g 12.0,4.0
# From MPC115889
379P/Spacewatch,e,12.4418,183.8243,30.7431,3.515387,0.1495355,0.34141847,139.0111,02/16.0/2022,2000,g 15.0,4.0
# From MPEC 2020-KB7
380P/PANSTARRS,e,8.2499,132.8062,87.0726,4.469954,0.1042917,0.33662959,103.5511,02/16.0/2022,2000,g 12.5,4.0
# From MPEC 2021-J28
381P/LINEAR-Spacewatch,e,28.3779,173.7613,173.2231,7.129779,0.0517714,0.68191732,45.1886,02/16.0/2022,2000,g 17.5,2.0
# From MPEC 2022-A21
382P/Larson,e,8.2871,173.7640,171.2023,6.476426,0.0598000,0.31755630,359.7981,02/16.0/2022,2000,g  8.0,4.0
# From MPC118844
383P/Christensen,e,12.3229,207.8446,133.7287,3.546129,0.1475952,0.59957831,124.5073,02/16.0/2022,2000,g 18.0,4.0
# From MPEC 2021-S45
384P/Kowalski,e,7.2845,354.2302,37.6179,2.900638,0.1995096,0.61586518,171.2228,02/16.0/2022,2000,g 19.5,4.0
# From MPEC 2021-F20
385P/Hill,e,16.8318,357.0606,44.3260,4.288518,0.1109796,0.40172935,98.2057,02/16.0/2022,2000,g 13.0,4.0
# From MPEC 2021-L04
386P/PANSTARRS,e,15.2297,134.9447,353.1765,4.054992,0.1207033,0.41623294,65.8877,02/16.0/2022,2000,g 14.5,4.0
# From MPEC 2021-J28
387P/Boattini,e,8.9227,259.2905,162.7756,4.797621,0.0937919,0.73636308,83.8099,02/16.0/2022,2000,g 15.0,4.0
# From MPEC 2021-S45
388P/Gibbs,e,23.8774,37.0421,42.3281,5.242553,0.0821088,0.61824144,77.0422,02/16.0/2022,2000,g 13.0,4.0
# From MPEC 2021-J28
389P/Siding Spring,e,160.0762,218.8612,249.3506,5.630267,0.0737752,0.70431498,57.5253,02/16.0/2022,2000,g 16.0,4.0
# From MPEC 2021-S45
390P/Gibbs,e,18.5617,152.2746,232.3637,5.806456,0.0704429,0.70729784,48.9986,02/16.0/2022,2000,g 12.0,4.0
# From MPEC 2021-F20
391P/Kowalski,e,21.2736,124.7352,187.1772,4.681298,0.0973094,0.12034746,138.8411,02/16.0/2022,2000,g  8.0,4.0
# From MPEC 2021-J28
392P/LINEAR,e,4.9313,24.8831,71.9225,6.143030,0.0647337,0.68287008,44.4195,02/16.0/2022,2000,g 14.5,4.0
# From MPEC 2021-BE3
393P/Spacewatch-Hill,e,16.7886,36.4063,328.4883,4.789231,0.0940384,0.12067875,79.2145,02/16.0/2022,2000,g 11.0,4.0
# From MPEC 2020-KB7
394P/PANSTARRS,e,8.5294,98.1252,54.5084,4.331378,0.1093364,0.36759753,88.4474,02/16.0/2022,2000,g 16.0,2.4
# From MPEC 2021-Y10
395P/Catalina-NEAT,e,3.2764,223.6001,89.9092,6.570472,0.0585207,0.38134165,2.7837,02/16.0/2022,2000,g 10.0,4.0
# From MPEC 2020-KB7
396P/,e,5.4364,136.6617,8.5184,6.812589,0.0554288,0.41573524,50.0508,02/16.0/2022,2000,g 12.0,4.0
# From MPEC 2021-O56
397P/Lemmon,e,10.9291,8.1969,14.4750,3.828798,0.1315559,0.40520984,79.7838,02/16.0/2022,2000,g 12.0,4.0
# From MPEC 2021-L04
398P/Boattini,e,11.0154,127.4571,320.2149,3.127583,0.1781931,0.58271758,74.1717,02/16.0/2022,2000,g 15.5,4.0
# From MPEC 2022-CN4
399P/PANSTARRS,e,13.3190,207.1394,214.3224,3.790750,0.1335415,0.44704437,35.9703,02/16.0/2022,2000,g 14.0,4.0
# From MPEC 2020-FB5
400P/PANSTARRS,e,10.9296,176.3920,238.8107,3.560958,0.1466742,0.40932839,54.3904,02/16.0/2022,2000,g 15.5,2.8
# From MPEC 2021-R75
401P/McNaught,e,12.8026,359.8799,309.3782,5.774502,0.0710284,0.57993414,56.9600,02/16.0/2022,2000,g 12.5,4.0
# From MPEC 2022-CN4
402P/LINEAR,e,30.8507,123.0923,326.7329,7.016758,0.0530273,0.43878947,3.3640,02/16.0/2022,2000,g  8.0,4.0
# From MPEC 2021-J28
403P/Catalina,e,12.3216,163.8124,277.6527,5.428039,0.0779363,0.50358921,40.3419,02/16.0/2022,2000,g 12.0,4.0
# From MPEC 2021-WD8
404P/Bressi,e,9.7155,260.8626,165.8771,4.791977,0.0939576,0.13537602,303.2749,02/16.0/2022,2000,g 10.0,4.0
# From MPEC 2021-L04
405P/Lemmon,e,9.3655,3.3147,112.2196,3.607663,0.1438352,0.68912786,60.2247,02/16.0/2022,2000,g 17.5,4.0
# From MPEC 2021-F20
406P/Gibbs,e,1.2135,11.4749,352.4033,3.575544,0.1457776,0.54205842,75.5422,02/16.0/2022,2000,g 17.0,4.0
# From MPEC 2021-F20
407P/PANSTARRS-Fuls,e,4.8821,80.6825,93.0388,3.466920,0.1526821,0.38340856,113.8683,02/16.0/2022,2000,g 14.0,4.0
# From MPEC 2022-C56
408P/Novichonok-Gerke,e,19.3528,189.4369,226.3510,4.750112,0.0952025,0.26993037,338.0680,02/16.0/2022,2000,g 11.0,4.0
# From MPEC 2021-UA9
409P/LONEOS-Hill,e,17.1190,143.6701,15.1230,6.044200,0.0663278,0.70980376,25.4620,02/16.0/2022,2000,g 14.0,4.0
# From MPEC 2022-CN4
410P/NEAT-LINEAR,e,9.3935,139.9806,313.0935,6.636522,0.0576492,0.51074670,13.6876,02/16.0/2022,2000,g 12.5,4.0
# From MPEC 2021-J28
411P/Christensen,e,12.3785,77.6631,46.6511,5.816352,0.0702632,0.58079995,27.2374,02/16.0/2022,2000,g 13.5,4.0
# From MPEC 2021-F20
412P/WISE,e,8.9313,0.8455,155.9319,3.109592,0.1797418,0.47963907,78.6701,02/16.0/2022,2000,g 17.0,4.0
# From MPEC 2021-O56
413P/Larson,e,15.9781,39.0226,186.0627,3.710450,0.1379000,0.42324150,29.0613,02/16.0/2022,2000,g 14.0,4.0
# From MPEC 2021-BE3
414P/STEREO,e,23.3849,257.7894,210.7242,2.794085,0.2110302,0.81162162,81.5934,02/16.0/2022,2000,g 19.0,4.0
# From MPEC 2022-CN4
415P/Tenagra,e,31.7923,160.2944,346.1912,4.114718,0.1180848,0.19470371,43.2443,02/16.0/2022,2000,g 12.0,4.0
# From MPEC 2021-L04
416P/Scotti,e,3.3613,355.8117,134.4833,4.012183,0.1226402,0.45429845,44.8386,02/16.0/2022,2000,g 15.5,4.0
# From MPEC 2021-W31
417P/NEOWISE,e,8.1268,111.3166,129.4865,3.350579,0.1607031,0.55494496,48.1663,02/16.0/2022,2000,g 16.5,4.0
# From MPEC 2021-L04
418P/LINEAR,e,5.7974,277.6569,307.1046,5.079675,0.0860895,0.66475680,10.4536,02/16.0/2022,2000,g 13.0,4.0
# From MPEC 2022-CN4
419P/PANSTARRS,e,2.8029,40.3900,187.5038,3.520595,0.1492038,0.27760121,16.6409,02/16.0/2022,2000,g 12.5,4.0
# From MPEC 2021-S45
420P/Hill,e,14.5037,173.9537,157.1111,5.526788,0.0758569,0.49547783,352.7486,02/16.0/2022,2000,g 11.5,4.0
# From MPEC 2021-W31
421P/McNaught,e,10.0798,55.3484,259.8315,5.075313,0.0862005,0.67550528,33.2894,02/16.0/2022,2000,g 14.0,4.0
# From MPEC 2022-A21
422P/Christensen,e,39.5399,36.0437,305.1568,6.321220,0.0620159,0.50876128,2.0571,02/16.0/2022,2000,g 11.0,4.0
# From MPEC 2022-A21
